line1,line2,validFromUtcTime
1 00000U 00000E   26001.00000000  .00000000  00000-0  27772-4 0    01,2 00000  88.9641  15.3307 0010062 269.8740  67.7669 13.55307996    01,2026-01-01T00:00:00Z
1 00000U 00000E   26002.00000000  .00000000  00000-0  27772-4 0    02,2 00000  88.9641  15.2253 0010062 266.9632 266.8741 13.55308035    06,2026-01-02T00:00:00Z
